{"type": "FeatureCollection", "features": [ {"type": "Feature", "properties": {"norad_id": 31838, "name": "FENGYUN 1C DEB", "group": "fengyun-1c-debris", "lat": -23.47237213025187, "lon": 43.773606737261275, "alt_km": 837.1045756071062, "timestamp": "2025-12-15T07:02:37.901146+00:00", "meta": {"OBJECT_NAME": "FENGYUN 1C DEB", "OBJECT_ID": "1999-025CJC", "EPOCH": "2025-12-14T23:16:41.253888", "MEAN_MOTION": 14.21140952, "ECCENTRICITY": 0.00384069, "INCLINATION": 98.7183, "RA_OF_ASC_NODE": 39.6337, "ARG_OF_PERICENTER": 89.1256, "MEAN_ANOMALY": 33.1339, "EPHEMERIS_TYPE": 0, "CLASSIFICATION_TYPE": "U", "NORAD_CAT_ID": 31838, "ELEMENT_SET_NO": 999, "REV_AT_EPOCH": 64608, "BSTAR": 0.00061312841, "MEAN_MOTION_DOT": 1.299e-05, "MEAN_MOTION_DDOT": 0}, "tle": {"line1": "1 31838U 99025CJC 25348.96992192  .00001299  00000+0  61313-3 0  9994", "line2": "2 31838  98.7183  39.6337 0038406  89.1256  33.1339 14.21140952646089"}}, "geometry": {"type": "Point", "coordinates": [43.773606737261275, -23.47237213025187]}}, {"type": "Feature", "properties": {"norad_id": 31841, "name": "FENGYUN 1C DEB", "group": "fengyun-1c-debris", "lat": 54.58435192996385, "lon": 145.8285563481547, "alt_km": 973.1538633298878, "timestamp": "2025-12-15T07:02:37.901156+00:00", "meta": {"OBJECT_NAME": "FENGYUN 1C DEB", "OBJECT_ID": "1999-025CJF", "EPOCH": "2025-12-09T06:12:44.774784", "MEAN_MOTION": 14.03533428, "ECCENTRICITY": 0.0308721, "INCLINATION": 98.4185, "RA_OF_ASC_NODE": 152.251, "ARG_OF_PERICENTER": 315.3739, "MEAN_ANOMALY": 221.9811, "EPHEMERIS_TYPE": 0, "CLASSIFICATION_TYPE": "U", "NORAD_CAT_ID": 31841, "ELEMENT_SET_NO": 999, "REV_AT_EPOCH": 59290, "BSTAR": 0.0023276, "MEAN_MOTION_DOT": 5.531e-05, "MEAN_MOTION_DDOT": 0}, "tle": {"line1": "1 31841U 99025CJF 25343.25885156  .00005531  00000+0  23276-2 0  9994", "line2": "2 31841  98.4185 152.2510 0308721 315.3739 221.9811 14.03533428592904"}}, "geometry": {"type": "Point", "coordinates": [145.8285563481547, 54.58435192996385]}}, {"type": "Feature", "properties": {"norad_id": 31843, "name": "FENGYUN 1C DEB", "group": "fengyun-1c-debris", "lat": -50.05119329134541, "lon": -58.97112381443737, "alt_km": 752.0857889859462, "timestamp": "2025-12-15T07:02:37.901166+00:00", "meta": {"OBJECT_NAME": "FENGYUN 1C DEB", "OBJECT_ID": "1999-025CJH", "EPOCH": "2025-12-14T02:28:07.998240", "MEAN_MOTION": 13.33901343, "ECCENTRICITY": 0.06401097, "INCLINATION": 99.282, "RA_OF_ASC_NODE": 288.6825, "ARG_OF_PERICENTER": 350.7326, "MEAN_ANOMALY": 8.2432, "EPHEMERIS_TYPE": 0, "CLASSIFICATION_TYPE": "U", "NORAD_CAT_ID": 31843, "ELEMENT_SET_NO": 999, "REV_AT_EPOCH": 64714, "BSTAR": 0.0071567737, "MEAN_MOTION_DOT": 0.00011463, "MEAN_MOTION_DDOT": 0}, "tle": {"line1": "1 31843U 99025CJH 25348.10287035  .00011463  00000+0  71568-2 0  9995", "line2": "2 31843  99.2820 288.6825 0640109 350.7326   8.2432 13.33901343647147"}}, "geometry": {"type": "Point", "coordinates": [-58.97112381443737, -50.05119329134541]}}, {"type": "Feature", "properties": {"norad_id": 31844, "name": "FENGYUN 1C DEB", "group": "fengyun-1c-debris", "lat": 54.01239932721419, "lon": 172.88208589494002, "alt_km": 878.1979990859481, "timestamp": "2025-12-15T07:02:37.901195+00:00", "meta": {"OBJECT_NAME": "FENGYUN 1C DEB", "OBJECT_ID": "1999-025CJJ", "EPOCH": "2025-12-13T22:19:33.784896", "MEAN_MOTION": 14.19755878, "ECCENTRICITY": 0.01034294, "INCLINATION": 100.3032, "RA_OF_ASC_NODE": 336.7917, "ARG_OF_PERICENTER": 347.7797, "MEAN_ANOMALY": 12.0868, "EPHEMERIS_TYPE": 0, "CLASSIFICATION_TYPE": "U", "NORAD_CAT_ID": 31844, "ELEMENT_SET_NO": 999, "REV_AT_EPOCH": 95349, "BSTAR": 0.0011790432, "MEAN_MOTION_DOT": 2.577e-05, "MEAN_MOTION_DDOT": 0}, "tle": {"line1": "1 31844U 99025CJJ 25347.93025214  .00002577  00000+0  11790-2 0  9992", "line2": "2 31844 100.3032 336.7917 0103429 347.7797  12.0868 14.19755878953490"}}, "geometry": {"type": "Point", "coordinates": [172.88208589494002, 54.01239932721419]}}, {"type": "Feature", "properties": {"norad_id": 31850, "name": "FENGYUN 1C DEB", "group": "fengyun-1c-debris", "lat": -59.35460826872727, "lon": 49.018365043010036, "alt_km": 512.4446127369501, "timestamp": "2025-12-15T07:02:37.901206+00:00", "meta": {"OBJECT_NAME": "FENGYUN 1C DEB", "OBJECT_ID": "1999-025CJQ", "EPOCH": "2025-12-14T09:23:04.476192", "MEAN_MOTION": 15.33433546, "ECCENTRICITY": 0.00762245, "INCLINATION": 98.5734, "RA_OF_ASC_NODE": 33.2199, "ARG_OF_PERICENTER": 83.7911, "MEAN_ANOMALY": 277.2005, "EPHEMERIS_TYPE": 0, "CLASSIFICATION_TYPE": "U", "NORAD_CAT_ID": 31850, "ELEMENT_SET_NO": 999, "REV_AT_EPOCH": 65854, "BSTAR": 0.0030655456, "MEAN_MOTION_DOT": 0.00109983, "MEAN_MOTION_DDOT": 0}, "tle": {"line1": "1 31850U 99025CJQ 25348.39102403  .00109983  00000+0  30655-2 0  9996", "line2": "2 31850  98.5734  33.2199 0076224  83.7911 277.2005 15.33433546658540"}}, "geometry": {"type": "Point", "coordinates": [49.018365043010036, -59.35460826872727]}}, {"type": "Feature", "properties": {"norad_id": 31854, "name": "FENGYUN 1C DEB", "group": "fengyun-1c-debris", "lat": -76.47419723454894, "lon": 32.77420094651628, "alt_km": 933.9821972077525, "timestamp": "2025-12-15T07:02:37.901216+00:00", "meta": {"OBJECT_NAME": "FENGYUN 1C DEB", "OBJECT_ID": "1999-025CJU", "EPOCH": "2025-12-12T17:48:54.033120", "MEAN_MOTION": 14.03073049, "ECCENTRICITY": 0.00722693, "INCLINATION": 98.8473, "RA_OF_ASC_NODE": 349.9436, "ARG_OF_PERICENTER": 141.1479, "MEAN_ANOMALY": 219.4914, "EPHEMERIS_TYPE": 0, "CLASSIFICATION_TYPE": "U", "NORAD_CAT_ID": 31854, "ELEMENT_SET_NO": 999, "REV_AT_EPOCH": 69272, "BSTAR": 0.00062449752, "MEAN_MOTION_DOT": 9.51e-06, "MEAN_MOTION_DDOT": 0}, "tle": {"line1": "1 31854U 99025CJU 25346.74229205  .00000951  00000+0  62450-3 0  9991", "line2": "2 31854  98.8473 349.9436 0072269 141.1479 219.4914 14.03073049692720"}}, "geometry": {"type": "Point", "coordinates": [32.77420094651628, -76.47419723454894]}}, {"type": "Feature", "properties": {"norad_id": 31857, "name": "FENGYUN 1C DEB", "group": "fengyun-1c-debris", "lat": 28.655498530530142, "lon": 14.53863784988053, "alt_km": 1114.152043169619, "timestamp": "2025-12-15T07:02:37.901227+00:00", "meta": {"OBJECT_NAME": "FENGYUN 1C DEB", "OBJECT_ID": "1999-025CJX", "EPOCH": "2025-12-08T09:09:37.694592", "MEAN_MOTION": 13.61900061, "ECCENTRICITY": 0.0309157, "INCLINATION": 96.1892, "RA_OF_ASC_NODE": 13.5368, "ARG_OF_PERICENTER": 294.2443, "MEAN_ANOMALY": 62.6695, "EPHEMERIS_TYPE": 0, "CLASSIFICATION_TYPE": "U", "NORAD_CAT_ID": 31857, "ELEMENT_SET_NO": 999, "REV_AT_EPOCH": 61570, "BSTAR": 0.0028041545, "MEAN_MOTION_DOT": 2.946e-05, "MEAN_MOTION_DDOT": 0}, "tle": {"line1": "1 31857U 99025CJX 25342.38168628  .00002946  00000+0  28042-2 0  9995", "line2": "2 31857  96.1892  13.5368 0309157 294.2443  62.6695 13.61900061615700"}}, "geometry": {"type": "Point", "coordinates": [14.53863784988053, 28.655498530530142]}}, {"type": "Feature", "properties": {"norad_id": 31861, "name": "FENGYUN 1C DEB", "group": "fengyun-1c-debris", "lat": 55.82043079843212, "lon": 163.61771966825324, "alt_km": 1425.3600579239856, "timestamp": "2025-12-15T07:02:37.901237+00:00", "meta": {"OBJECT_NAME": "FENGYUN 1C DEB", "OBJECT_ID": "1999-025CKB", "EPOCH": "2025-11-30T18:20:57.621120", "MEAN_MOTION": 13.30200627, "ECCENTRICITY": 0.04966148, "INCLINATION": 102.3423, "RA_OF_ASC_NODE": 165.0071, "ARG_OF_PERICENTER": 230.9853, "MEAN_ANOMALY": 124.6046, "EPHEMERIS_TYPE": 0, "CLASSIFICATION_TYPE": "U", "NORAD_CAT_ID": 31861, "ELEMENT_SET_NO": 999, "REV_AT_EPOCH": 66608, "BSTAR": 0.0034105388, "MEAN_MOTION_DOT": 3.105e-05, "MEAN_MOTION_DDOT": 0}, "tle": {"line1": "1 31861U 99025CKB 25334.76455580  .00003105  00000+0  34105-2 0  9994", "line2": "2 31861 102.3423 165.0071 0496614 230.9853 124.6046 13.30200627666089"}}, "geometry": {"type": "Point", "coordinates": [163.61771966825324, 55.82043079843212]}}, {"type": "Feature", "properties": {"norad_id": 31877, "name": "FENGYUN 1C DEB", "group": "fengyun-1c-debris", "lat": 14.6960906451667, "lon": 57.53409876064233, "alt_km": 580.1436499899382, "timestamp": "2025-12-15T07:02:37.901248+00:00", "meta": {"OBJECT_NAME": "FENGYUN 1C DEB", "OBJECT_ID": "1999-025CKC", "EPOCH": "2025-12-14T03:47:22.900416", "MEAN_MOTION": 15.01553215, "ECCENTRICITY": 0.01043999, "INCLINATION": 99.0021, "RA_OF_ASC_NODE": 58.6015, "ARG_OF_PERICENTER": 274.3584, "MEAN_ANOMALY": 84.5713, "EPHEMERIS_TYPE": 0, "CLASSIFICATION_TYPE": "U", "NORAD_CAT_ID": 31877, "ELEMENT_SET_NO": 999, "REV_AT_EPOCH": 99063, "BSTAR": 0.00096082472, "MEAN_MOTION_DOT": 0.00013924, "MEAN_MOTION_DDOT": 0}, "tle": {"line1": "1 31877U 99025CKC 25348.15790394  .00013924  00000+0  96082-3 0  9997", "line2": "2 31877  99.0021  58.6015 0104399 274.3584  84.5713 15.01553215990636"}}, "geometry": {"type": "Point", "coordinates": [57.53409876064233, 14.6960906451667]}}, {"type": "Feature", "properties": {"norad_id": 31878, "name": "FENGYUN 1C DEB", "group": "fengyun-1c-debris", "lat": 80.45413893559227, "lon": -168.32410079502728, "alt_km": 649.6967483627268, "timestamp": "2025-12-15T07:02:37.901258+00:00", "meta": {"OBJECT_NAME": "FENGYUN 1C DEB", "OBJECT_ID": "1999-025CKD", "EPOCH": "2025-12-03T00:27:41.548032", "MEAN_MOTION": 14.85464766, "ECCENTRICITY": 0.00842743, "INCLINATION": 99.4399, "RA_OF_ASC_NODE": 258.7733, "ARG_OF_PERICENTER": 269.6043, "MEAN_ANOMALY": 89.551, "EPHEMERIS_TYPE": 0, "CLASSIFICATION_TYPE": "U", "NORAD_CAT_ID": 31878, "ELEMENT_SET_NO": 999, "REV_AT_EPOCH": 97949, "BSTAR": 0.0019397439, "MEAN_MOTION_DOT": 0.000178, "MEAN_MOTION_DDOT": 0}, "tle": {"line1": "1 31878U 99025CKD 25337.01923088  .00017800  00000+0  19397-2 0  9999", "line2": "2 31878  99.4399 258.7733 0084274 269.6043  89.5510 14.85464766979499"}}, "geometry": {"type": "Point", "coordinates": [-168.32410079502728, 80.45413893559227]}}]}